ONEWEB-0403             
1 50483U 21132Q   25312.08938856  .00000049  00000+0  90548-4 0  9991
2 50483  87.9224  19.3644 0001720  97.8724 262.2603 13.18686468192451
ONEWEB-0404             
1 50484U 21132R   25312.07087221  .00000426  00000+0  11655-2 0  9991
2 50484  87.8857  65.1051 0001260  95.0607 265.0665 13.11418987186716
ONEWEB-0405             
1 50485U 21132S   25312.18011220  .00000082  00000+0  17526-3 0  9992
2 50485  87.9223  19.3306 0001725 109.1780 250.9539 13.18686910192860
ONEWEB-0406             
1 50486U 21132T   25312.09433815  .00000037  00000+0  62102-4 0  9992
2 50486  87.9225  19.3718 0001608  83.9399 276.1917 13.18687377192481
ONEWEB-0407             
1 50487U 21132U   25312.16361797  .00000053  00000+0  10110-3 0  9999
2 50487  87.9222  19.3421 0001984 103.3601 256.7753 13.18686871192435
ONEWEB-0409             
1 50488U 21132V   25311.84029237  .00000558  00000+0  15391-2 0  9999
2 50488  87.8870  65.1151 0001425  88.5218 271.6073 13.11416889186573
ONEWEB-0412             
1 50489U 21132W   25312.15205924  .00000148  00000+0  34175-3 0  9991
2 50489  87.9224  19.3571 0001830 112.4115 247.7211 13.18686589192521
ONEWEB-0413             
1 50490U 21132X   25312.15701544  .00000111  00000+0  24929-3 0  9998
2 50490  87.9216  19.3722 0001976 109.6883 250.4463 13.18687520192462
