<?xml version="1.0" encoding="UTF-8"?>
<ndm xmlns:xsi="http://www.w3.org/2001/XMLSchema-instance" xsi:noNamespaceSchemaLocation="https://sanaregistry.org/r/ndmxml_unqualified/ndmxml-2.0.0-master-2.0.xsd">
<omm id="CCSDS_OMM_VERS" version="2.0">
<header><CREATION_DATE/><ORIGINATOR/></header><body><segment><metadata><OBJECT_NAME>ONEWEB-0403</OBJECT_NAME><OBJECT_ID>2021-132Q</OBJECT_ID><CENTER_NAME>EARTH</CENTER_NAME><REF_FRAME>TEME</REF_FRAME><TIME_SYSTEM>UTC</TIME_SYSTEM><MEAN_ELEMENT_THEORY>SGP4</MEAN_ELEMENT_THEORY></metadata><data><meanElements><EPOCH>2025-11-08T02:08:43.171584</EPOCH><MEAN_MOTION>13.18686468</MEAN_MOTION><ECCENTRICITY>.000172</ECCENTRICITY><INCLINATION>87.9224</INCLINATION><RA_OF_ASC_NODE>19.3644</RA_OF_ASC_NODE><ARG_OF_PERICENTER>97.8724</ARG_OF_PERICENTER><MEAN_ANOMALY>262.2603</MEAN_ANOMALY></meanElements><tleParameters><EPHEMERIS_TYPE>0</EPHEMERIS_TYPE><CLASSIFICATION_TYPE>U</CLASSIFICATION_TYPE><NORAD_CAT_ID>50483</NORAD_CAT_ID><ELEMENT_SET_NO>999</ELEMENT_SET_NO><REV_AT_EPOCH>19245</REV_AT_EPOCH><BSTAR>.90548E-4</BSTAR><MEAN_MOTION_DOT>.49E-6</MEAN_MOTION_DOT><MEAN_MOTION_DDOT>0</MEAN_MOTION_DDOT></tleParameters></data></segment></body></omm>
<omm id="CCSDS_OMM_VERS" version="2.0">
<header><CREATION_DATE/><ORIGINATOR/></header><body><segment><metadata><OBJECT_NAME>ONEWEB-0404</OBJECT_NAME><OBJECT_ID>2021-132R</OBJECT_ID><CENTER_NAME>EARTH</CENTER_NAME><REF_FRAME>TEME</REF_FRAME><TIME_SYSTEM>UTC</TIME_SYSTEM><MEAN_ELEMENT_THEORY>SGP4</MEAN_ELEMENT_THEORY></metadata><data><meanElements><EPOCH>2025-11-08T01:42:03.358944</EPOCH><MEAN_MOTION>13.11418987</MEAN_MOTION><ECCENTRICITY>.000126</ECCENTRICITY><INCLINATION>87.8857</INCLINATION><RA_OF_ASC_NODE>65.1051</RA_OF_ASC_NODE><ARG_OF_PERICENTER>95.0607</ARG_OF_PERICENTER><MEAN_ANOMALY>265.0665</MEAN_ANOMALY></meanElements><tleParameters><EPHEMERIS_TYPE>0</EPHEMERIS_TYPE><CLASSIFICATION_TYPE>U</CLASSIFICATION_TYPE><NORAD_CAT_ID>50484</NORAD_CAT_ID><ELEMENT_SET_NO>999</ELEMENT_SET_NO><REV_AT_EPOCH>18671</REV_AT_EPOCH><BSTAR>.11655E-2</BSTAR><MEAN_MOTION_DOT>.426E-5</MEAN_MOTION_DOT><MEAN_MOTION_DDOT>0</MEAN_MOTION_DDOT></tleParameters></data></segment></body></omm>
<omm id="CCSDS_OMM_VERS" version="2.0">
<header><CREATION_DATE/><ORIGINATOR/></header><body><segment><metadata><OBJECT_NAME>ONEWEB-0405</OBJECT_NAME><OBJECT_ID>2021-132S</OBJECT_ID><CENTER_NAME>EARTH</CENTER_NAME><REF_FRAME>TEME</REF_FRAME><TIME_SYSTEM>UTC</TIME_SYSTEM><MEAN_ELEMENT_THEORY>SGP4</MEAN_ELEMENT_THEORY></metadata><data><meanElements><EPOCH>2025-11-08T04:19:21.694080</EPOCH><MEAN_MOTION>13.18686910</MEAN_MOTION><ECCENTRICITY>.0001725</ECCENTRICITY><INCLINATION>87.9223</INCLINATION><RA_OF_ASC_NODE>19.3306</RA_OF_ASC_NODE><ARG_OF_PERICENTER>109.1780</ARG_OF_PERICENTER><MEAN_ANOMALY>250.9539</MEAN_ANOMALY></meanElements><tleParameters><EPHEMERIS_TYPE>0</EPHEMERIS_TYPE><CLASSIFICATION_TYPE>U</CLASSIFICATION_TYPE><NORAD_CAT_ID>50485</NORAD_CAT_ID><ELEMENT_SET_NO>999</ELEMENT_SET_NO><REV_AT_EPOCH>19286</REV_AT_EPOCH><BSTAR>.17526E-3</BSTAR><MEAN_MOTION_DOT>.82E-6</MEAN_MOTION_DOT><MEAN_MOTION_DDOT>0</MEAN_MOTION_DDOT></tleParameters></data></segment></body></omm>
<omm id="CCSDS_OMM_VERS" version="2.0">
<header><CREATION_DATE/><ORIGINATOR/></header><body><segment><metadata><OBJECT_NAME>ONEWEB-0406</OBJECT_NAME><OBJECT_ID>2021-132T</OBJECT_ID><CENTER_NAME>EARTH</CENTER_NAME><REF_FRAME>TEME</REF_FRAME><TIME_SYSTEM>UTC</TIME_SYSTEM><MEAN_ELEMENT_THEORY>SGP4</MEAN_ELEMENT_THEORY></metadata><data><meanElements><EPOCH>2025-11-08T02:15:50.816160</EPOCH><MEAN_MOTION>13.18687377</MEAN_MOTION><ECCENTRICITY>.0001608</ECCENTRICITY><INCLINATION>87.9225</INCLINATION><RA_OF_ASC_NODE>19.3718</RA_OF_ASC_NODE><ARG_OF_PERICENTER>83.9399</ARG_OF_PERICENTER><MEAN_ANOMALY>276.1917</MEAN_ANOMALY></meanElements><tleParameters><EPHEMERIS_TYPE>0</EPHEMERIS_TYPE><CLASSIFICATION_TYPE>U</CLASSIFICATION_TYPE><NORAD_CAT_ID>50486</NORAD_CAT_ID><ELEMENT_SET_NO>999</ELEMENT_SET_NO><REV_AT_EPOCH>19248</REV_AT_EPOCH><BSTAR>.62102E-4</BSTAR><MEAN_MOTION_DOT>.37E-6</MEAN_MOTION_DOT><MEAN_MOTION_DDOT>0</MEAN_MOTION_DDOT></tleParameters></data></segment></body></omm>
<omm id="CCSDS_OMM_VERS" version="2.0">
<header><CREATION_DATE/><ORIGINATOR/></header><body><segment><metadata><OBJECT_NAME>ONEWEB-0407</OBJECT_NAME><OBJECT_ID>2021-132U</OBJECT_ID><CENTER_NAME>EARTH</CENTER_NAME><REF_FRAME>TEME</REF_FRAME><TIME_SYSTEM>UTC</TIME_SYSTEM><MEAN_ELEMENT_THEORY>SGP4</MEAN_ELEMENT_THEORY></metadata><data><meanElements><EPOCH>2025-11-08T03:55:36.592608</EPOCH><MEAN_MOTION>13.18686871</MEAN_MOTION><ECCENTRICITY>.0001984</ECCENTRICITY><INCLINATION>87.9222</INCLINATION><RA_OF_ASC_NODE>19.3421</RA_OF_ASC_NODE><ARG_OF_PERICENTER>103.3601</ARG_OF_PERICENTER><MEAN_ANOMALY>256.7753</MEAN_ANOMALY></meanElements><tleParameters><EPHEMERIS_TYPE>0</EPHEMERIS_TYPE><CLASSIFICATION_TYPE>U</CLASSIFICATION_TYPE><NORAD_CAT_ID>50487</NORAD_CAT_ID><ELEMENT_SET_NO>999</ELEMENT_SET_NO><REV_AT_EPOCH>19243</REV_AT_EPOCH><BSTAR>.1011E-3</BSTAR><MEAN_MOTION_DOT>.53E-6</MEAN_MOTION_DOT><MEAN_MOTION_DDOT>0</MEAN_MOTION_DDOT></tleParameters></data></segment></body></omm>
<omm id="CCSDS_OMM_VERS" version="2.0">
<header><CREATION_DATE/><ORIGINATOR/></header><body><segment><metadata><OBJECT_NAME>ONEWEB-0409</OBJECT_NAME><OBJECT_ID>2021-132V</OBJECT_ID><CENTER_NAME>EARTH</CENTER_NAME><REF_FRAME>TEME</REF_FRAME><TIME_SYSTEM>UTC</TIME_SYSTEM><MEAN_ELEMENT_THEORY>SGP4</MEAN_ELEMENT_THEORY></metadata><data><meanElements><EPOCH>2025-11-07T20:10:01.260768</EPOCH><MEAN_MOTION>13.11416889</MEAN_MOTION><ECCENTRICITY>.0001425</ECCENTRICITY><INCLINATION>87.8870</INCLINATION><RA_OF_ASC_NODE>65.1151</RA_OF_ASC_NODE><ARG_OF_PERICENTER>88.5218</ARG_OF_PERICENTER><MEAN_ANOMALY>271.6073</MEAN_ANOMALY></meanElements><tleParameters><EPHEMERIS_TYPE>0</EPHEMERIS_TYPE><CLASSIFICATION_TYPE>U</CLASSIFICATION_TYPE><NORAD_CAT_ID>50488</NORAD_CAT_ID><ELEMENT_SET_NO>999</ELEMENT_SET_NO><REV_AT_EPOCH>18657</REV_AT_EPOCH><BSTAR>.15391E-2</BSTAR><MEAN_MOTION_DOT>.558E-5</MEAN_MOTION_DOT><MEAN_MOTION_DDOT>0</MEAN_MOTION_DDOT></tleParameters></data></segment></body></omm>
<omm id="CCSDS_OMM_VERS" version="2.0">
<header><CREATION_DATE/><ORIGINATOR/></header><body><segment><metadata><OBJECT_NAME>ONEWEB-0412</OBJECT_NAME><OBJECT_ID>2021-132W</OBJECT_ID><CENTER_NAME>EARTH</CENTER_NAME><REF_FRAME>TEME</REF_FRAME><TIME_SYSTEM>UTC</TIME_SYSTEM><MEAN_ELEMENT_THEORY>SGP4</MEAN_ELEMENT_THEORY></metadata><data><meanElements><EPOCH>2025-11-08T03:38:57.918336</EPOCH><MEAN_MOTION>13.18686589</MEAN_MOTION><ECCENTRICITY>.000183</ECCENTRICITY><INCLINATION>87.9224</INCLINATION><RA_OF_ASC_NODE>19.3571</RA_OF_ASC_NODE><ARG_OF_PERICENTER>112.4115</ARG_OF_PERICENTER><MEAN_ANOMALY>247.7211</MEAN_ANOMALY></meanElements><tleParameters><EPHEMERIS_TYPE>0</EPHEMERIS_TYPE><CLASSIFICATION_TYPE>U</CLASSIFICATION_TYPE><NORAD_CAT_ID>50489</NORAD_CAT_ID><ELEMENT_SET_NO>999</ELEMENT_SET_NO><REV_AT_EPOCH>19252</REV_AT_EPOCH><BSTAR>.34175E-3</BSTAR><MEAN_MOTION_DOT>.148E-5</MEAN_MOTION_DOT><MEAN_MOTION_DDOT>0</MEAN_MOTION_DDOT></tleParameters></data></segment></body></omm>
<omm id="CCSDS_OMM_VERS" version="2.0">
<header><CREATION_DATE/><ORIGINATOR/></header><body><segment><metadata><OBJECT_NAME>ONEWEB-0413</OBJECT_NAME><OBJECT_ID>2021-132X</OBJECT_ID><CENTER_NAME>EARTH</CENTER_NAME><REF_FRAME>TEME</REF_FRAME><TIME_SYSTEM>UTC</TIME_SYSTEM><MEAN_ELEMENT_THEORY>SGP4</MEAN_ELEMENT_THEORY></metadata><data><meanElements><EPOCH>2025-11-08T03:46:06.134016</EPOCH><MEAN_MOTION>13.18687520</MEAN_MOTION><ECCENTRICITY>.0001976</ECCENTRICITY><INCLINATION>87.9216</INCLINATION><RA_OF_ASC_NODE>19.3722</RA_OF_ASC_NODE><ARG_OF_PERICENTER>109.6883</ARG_OF_PERICENTER><MEAN_ANOMALY>250.4463</MEAN_ANOMALY></meanElements><tleParameters><EPHEMERIS_TYPE>0</EPHEMERIS_TYPE><CLASSIFICATION_TYPE>U</CLASSIFICATION_TYPE><NORAD_CAT_ID>50490</NORAD_CAT_ID><ELEMENT_SET_NO>999</ELEMENT_SET_NO><REV_AT_EPOCH>19246</REV_AT_EPOCH><BSTAR>.24929E-3</BSTAR><MEAN_MOTION_DOT>.111E-5</MEAN_MOTION_DOT><MEAN_MOTION_DDOT>0</MEAN_MOTION_DDOT></tleParameters></data></segment></body></omm>

</ndm>
